{"type": "FeatureCollection", "features": [ {"type": "Feature", "properties": {"norad_id": 39778, "name": "IRIDIUM 33 DEB", "group": "iridium-33-debris", "lat": -9.631503152230477, "lon": -132.12816938253474, "alt_km": 719.6029502871306, "timestamp": "2025-12-03T10:52:57.840888+00:00", "meta": {"OBJECT_NAME": "IRIDIUM 33 DEB", "OBJECT_ID": "1997-051AAK", "EPOCH": "2025-12-02T22:27:14.498208", "MEAN_MOTION": 14.54141875, "ECCENTRICITY": 0.00089, "INCLINATION": 86.3788, "RA_OF_ASC_NODE": 47.4807, "ARG_OF_PERICENTER": 70.5169, "MEAN_ANOMALY": 289.6998, "EPHEMERIS_TYPE": 0, "CLASSIFICATION_TYPE": "U", "NORAD_CAT_ID": 39778, "ELEMENT_SET_NO": 999, "REV_AT_EPOCH": 60550, "BSTAR": 0.0012389, "MEAN_MOTION_DOT": 5.259e-05, "MEAN_MOTION_DDOT": 0}, "tle": {"line1": "1 39778U 97051AAK 25336.93558447  .00005259  00000+0  12389-2 0  9995", "line2": "2 39778  86.3788  47.4807 0008900  70.5169 289.6998 14.54141875605508"}}, "geometry": {"type": "Point", "coordinates": [-132.12816938253474, -9.631503152230477]}}, {"type": "Feature", "properties": {"norad_id": 39781, "name": "IRIDIUM 33 DEB", "group": "iridium-33-debris", "lat": -5.363812011828873, "lon": -98.5372689852773, "alt_km": 747.0434939391689, "timestamp": "2025-12-03T10:52:57.840898+00:00", "meta": {"OBJECT_NAME": "IRIDIUM 33 DEB", "OBJECT_ID": "1997-051AAN", "EPOCH": "2025-12-01T14:05:13.737984", "MEAN_MOTION": 14.20093316, "ECCENTRICITY": 0.01818611, "INCLINATION": 86.3695, "RA_OF_ASC_NODE": 262.5729, "ARG_OF_PERICENTER": 308.3699, "MEAN_ANOMALY": 228.4219, "EPHEMERIS_TYPE": 0, "CLASSIFICATION_TYPE": "U", "NORAD_CAT_ID": 39781, "ELEMENT_SET_NO": 999, "REV_AT_EPOCH": 7948, "BSTAR": 0.0058998753, "MEAN_MOTION_DOT": 0.00014872, "MEAN_MOTION_DDOT": 0}, "tle": {"line1": "1 39781U 97051AAN 25335.58696456  .00014872  00000+0  58999-2 0  9990", "line2": "2 39781  86.3695 262.5729 0181861 308.3699 228.4219 14.20093316 79488"}}, "geometry": {"type": "Point", "coordinates": [-98.5372689852773, -5.363812011828873]}}, {"type": "Feature", "properties": {"norad_id": 39783, "name": "IRIDIUM 33 DEB", "group": "iridium-33-debris", "lat": -43.81166316639056, "lon": 83.83769502304973, "alt_km": 490.1689239225607, "timestamp": "2025-12-03T10:52:57.840909+00:00", "meta": {"OBJECT_NAME": "IRIDIUM 33 DEB", "OBJECT_ID": "1997-051AAQ", "EPOCH": "2025-11-16T15:05:40.850592", "MEAN_MOTION": 15.19327111, "ECCENTRICITY": 0.00057535, "INCLINATION": 86.1306, "RA_OF_ASC_NODE": 268.8004, "ARG_OF_PERICENTER": 179.9151, "MEAN_ANOMALY": 1.8316, "EPHEMERIS_TYPE": 0, "CLASSIFICATION_TYPE": "U", "NORAD_CAT_ID": 39783, "ELEMENT_SET_NO": 999, "REV_AT_EPOCH": 60401, "BSTAR": 0.010398125, "MEAN_MOTION_DOT": 0.00226179, "MEAN_MOTION_DDOT": 0}, "tle": {"line1": "1 39783U 97051AAQ 25320.62894503  .00226179  00000+0  10398-1 0  9999", "line2": "2 39783  86.1306 268.8004 0005753 179.9151   1.8316 15.19327111604018"}}, "geometry": {"type": "Point", "coordinates": [83.83769502304973, -43.81166316639056]}}, {"type": "Feature", "properties": {"norad_id": 40996, "name": "IRIDIUM 33 DEB", "group": "iridium-33-debris", "lat": 14.159855581194314, "lon": -175.175977018873, "alt_km": 580.6306674927373, "timestamp": "2025-12-03T10:52:57.840920+00:00", "meta": {"OBJECT_NAME": "IRIDIUM 33 DEB", "OBJECT_ID": "1997-051ABJ", "EPOCH": "2025-12-02T08:31:11.979264", "MEAN_MOTION": 14.95250831, "ECCENTRICITY": 0.00120962, "INCLINATION": 86.3524, "RA_OF_ASC_NODE": 6.2584, "ARG_OF_PERICENTER": 92.2467, "MEAN_ANOMALY": 284.2756, "EPHEMERIS_TYPE": 0, "CLASSIFICATION_TYPE": "U", "NORAD_CAT_ID": 40996, "ELEMENT_SET_NO": 999, "REV_AT_EPOCH": 62333, "BSTAR": 0.0031243939, "MEAN_MOTION_DOT": 0.0003457, "MEAN_MOTION_DDOT": 0}, "tle": {"line1": "1 40996U 97051ABJ 25336.35499976  .00034570  00000+0  31244-2 0  9995", "line2": "2 40996  86.3524   6.2584 0012096  92.2467 284.2756 14.95250831623330"}}, "geometry": {"type": "Point", "coordinates": [-175.175977018873, 14.159855581194314]}}, {"type": "Feature", "properties": {"norad_id": 40998, "name": "IRIDIUM 33 DEB", "group": "iridium-33-debris", "lat": 25.639710439009303, "lon": -124.11754810205308, "alt_km": 736.3843696918802, "timestamp": "2025-12-03T10:52:57.840931+00:00", "meta": {"OBJECT_NAME": "IRIDIUM 33 DEB", "OBJECT_ID": "1997-051ABL", "EPOCH": "2025-12-02T23:06:44.152128", "MEAN_MOTION": 14.45040137, "ECCENTRICITY": 0.000957, "INCLINATION": 86.3836, "RA_OF_ASC_NODE": 57.8313, "ARG_OF_PERICENTER": 110.0045, "MEAN_ANOMALY": 14.425, "EPHEMERIS_TYPE": 0, "CLASSIFICATION_TYPE": "U", "NORAD_CAT_ID": 40998, "ELEMENT_SET_NO": 999, "REV_AT_EPOCH": 6540, "BSTAR": 0.0007246, "MEAN_MOTION_DOT": 2.55e-05, "MEAN_MOTION_DDOT": 0}, "tle": {"line1": "1 40998U 97051ABL 25336.96301102  .00002550  00000+0  72460-3 0  9996", "line2": "2 40998  86.3836  57.8313 0009570 110.0045  14.4250 14.45040137 65405"}}, "geometry": {"type": "Point", "coordinates": [-124.11754810205308, 25.639710439009303]}}, {"type": "Feature", "properties": {"norad_id": 46435, "name": "IRIDIUM 33 DEB", "group": "iridium-33-debris", "lat": 77.14711510884031, "lon": 1.387401145027836, "alt_km": 918.9963120643724, "timestamp": "2025-12-03T10:52:57.840941+00:00", "meta": {"OBJECT_NAME": "IRIDIUM 33 DEB", "OBJECT_ID": "1997-051ABN", "EPOCH": "2025-12-01T21:34:01.840224", "MEAN_MOTION": 14.31281633, "ECCENTRICITY": 0.02132677, "INCLINATION": 86.2832, "RA_OF_ASC_NODE": 198.6078, "ARG_OF_PERICENTER": 311.3277, "MEAN_ANOMALY": 63.4086, "EPHEMERIS_TYPE": 0, "CLASSIFICATION_TYPE": "U", "NORAD_CAT_ID": 46435, "ELEMENT_SET_NO": 999, "REV_AT_EPOCH": 7761, "BSTAR": 0.0078564893, "MEAN_MOTION_DOT": 0.00026766, "MEAN_MOTION_DDOT": 0}, "tle": {"line1": "1 46435U 97051ABN 25335.89863241  .00026766  00000+0  78565-2 0  9992", "line2": "2 46435  86.2832 198.6078 0213267 311.3277  63.4086 14.31281633 77617"}}, "geometry": {"type": "Point", "coordinates": [1.387401145027836, 77.14711510884031]}}, {"type": "Feature", "properties": {"norad_id": 46734, "name": "IRIDIUM 33 DEB", "group": "iridium-33-debris", "lat": -39.499389316712126, "lon": 3.8542258111941474, "alt_km": 739.574738309082, "timestamp": "2025-12-03T10:52:57.840951+00:00", "meta": {"OBJECT_NAME": "IRIDIUM 33 DEB", "OBJECT_ID": "1997-051ABR", "EPOCH": "2025-12-02T08:29:47.143104", "MEAN_MOTION": 14.41781763, "ECCENTRICITY": 0.00396088, "INCLINATION": 86.2647, "RA_OF_ASC_NODE": 7.4234, "ARG_OF_PERICENTER": 10.3878, "MEAN_ANOMALY": 7.5536, "EPHEMERIS_TYPE": 0, "CLASSIFICATION_TYPE": "U", "NORAD_CAT_ID": 46734, "ELEMENT_SET_NO": 999, "REV_AT_EPOCH": 62861, "BSTAR": 0.0011870669, "MEAN_MOTION_DOT": 3.931e-05, "MEAN_MOTION_DDOT": 0}, "tle": {"line1": "1 46734U 97051ABR 25336.35401786  .00003931  00000+0  11871-2 0  9994", "line2": "2 46734  86.2647   7.4234 0039608  10.3878   7.5536 14.41781763628613"}}, "geometry": {"type": "Point", "coordinates": [3.8542258111941474, -39.499389316712126]}}, {"type": "Feature", "properties": {"norad_id": 46965, "name": "IRIDIUM 33 DEB", "group": "iridium-33-debris", "lat": -24.1108796642907, "lon": 166.46099491799512, "alt_km": 711.3749674576275, "timestamp": "2025-12-03T10:52:57.840963+00:00", "meta": {"OBJECT_NAME": "IRIDIUM 33 DEB", "OBJECT_ID": "1997-051ABX", "EPOCH": "2025-12-01T19:17:57.587136", "MEAN_MOTION": 14.60159185, "ECCENTRICITY": 0.00196274, "INCLINATION": 86.3356, "RA_OF_ASC_NODE": 345.5484, "ARG_OF_PERICENTER": 10.7692, "MEAN_ANOMALY": 169.2127, "EPHEMERIS_TYPE": 0, "CLASSIFICATION_TYPE": "U", "NORAD_CAT_ID": 46965, "ELEMENT_SET_NO": 999, "REV_AT_EPOCH": 62108, "BSTAR": 0.00078040871, "MEAN_MOTION_DOT": 3.788e-05, "MEAN_MOTION_DDOT": 0}, "tle": {"line1": "1 46965U 97051ABX 25335.80413874  .00003788  00000+0  78041-3 0  9993", "line2": "2 46965  86.3356 345.5484 0019627  10.7692 169.2127 14.60159185621081"}}, "geometry": {"type": "Point", "coordinates": [166.46099491799512, -24.1108796642907]}}, {"type": "Feature", "properties": {"norad_id": 46971, "name": "IRIDIUM 33 DEB", "group": "iridium-33-debris", "lat": 61.306940521709144, "lon": 150.76119660712922, "alt_km": 572.2231839197129, "timestamp": "2025-12-03T10:52:57.840973+00:00", "meta": {"OBJECT_NAME": "IRIDIUM 33 DEB", "OBJECT_ID": "1997-051ACD", "EPOCH": "2025-11-30T18:57:44.502624", "MEAN_MOTION": 14.96904917, "ECCENTRICITY": 0.00065248, "INCLINATION": 86.3392, "RA_OF_ASC_NODE": 338.7285, "ARG_OF_PERICENTER": 8.9727, "MEAN_ANOMALY": 165.6369, "EPHEMERIS_TYPE": 0, "CLASSIFICATION_TYPE": "U", "NORAD_CAT_ID": 46971, "ELEMENT_SET_NO": 999, "REV_AT_EPOCH": 64051, "BSTAR": 0.0032009998, "MEAN_MOTION_DOT": 0.00036919, "MEAN_MOTION_DDOT": 0}, "tle": {"line1": "1 46971U 97051ACD 25334.79009841  .00036919  00000+0  32010-2 0  9999", "line2": "2 46971  86.3392 338.7285 0006524   8.9727 165.6369 14.96904917640518"}}, "geometry": {"type": "Point", "coordinates": [150.76119660712922, 61.306940521709144]}}, {"type": "Feature", "properties": {"norad_id": 46974, "name": "IRIDIUM 33 DEB", "group": "iridium-33-debris", "lat": 82.95226732176035, "lon": -102.25081348710954, "alt_km": 773.0786450797923, "timestamp": "2025-12-03T10:52:57.840984+00:00", "meta": {"OBJECT_NAME": "IRIDIUM 33 DEB", "OBJECT_ID": "1997-051ACG", "EPOCH": "2025-11-30T02:35:30.463008", "MEAN_MOTION": 14.43749529, "ECCENTRICITY": 0.00958857, "INCLINATION": 86.2984, "RA_OF_ASC_NODE": 110.7848, "ARG_OF_PERICENTER": 228.1133, "MEAN_ANOMALY": 131.1861, "EPHEMERIS_TYPE": 0, "CLASSIFICATION_TYPE": "U", "NORAD_CAT_ID": 46974, "ELEMENT_SET_NO": 999, "REV_AT_EPOCH": 57326, "BSTAR": 0.0048958995, "MEAN_MOTION_DOT": 0.00017648, "MEAN_MOTION_DDOT": 0}, "tle": {"line1": "1 46974U 97051ACG 25334.10799147  .00017648  00000+0  48959-2 0  9999", "line2": "2 46974  86.2984 110.7848 0095885 228.1133 131.1861 14.43749529573265"}}, "geometry": {"type": "Point", "coordinates": [-102.25081348710954, 82.95226732176035]}}]}